[
    {
        "Altitude(m)": 555226.450919384,
        "Argument of Periapsis(deg)": 0.013245982221427002,
        "Eccentricity": 0.0,
        "Inclination(deg)": 53.0,
        "Latitude(deg)": 31.12449397244617,
        "Longitude(deg)": 30.328778889843118,
        "Mean Anomaly(deg)": 40.183185735155185,
        "RAAN(deg)": 104.98028673705603,
        "Satellite Name": "Starlink Shell 1 463",
        "Satellite Number": 463,
        "Semi-Major Axis(m)": 6931778.249405717,
        "Time(s)": 380
    },
    {
        "Altitude(m)": 555302.6313114006,
        "Argument of Periapsis(deg)": 0.013594560700938237,
        "Eccentricity": 0.0,
        "Inclination(deg)": 53.0,
        "Latitude(deg)": 31.571807229755194,
        "Longitude(deg)": 30.803090038830206,
        "Mean Anomaly(deg)": 40.810016938711875,
        "RAAN(deg)": 104.97976796697859,
        "Satellite Name": "Starlink Shell 1 463",
        "Satellite Number": 463,
        "Semi-Major Axis(m)": 6931778.249405717,
        "Time(s)": 390
    },
    {
        "Altitude(m)": 555379.684758901,
        "Argument of Periapsis(deg)": 0.013943139180449475,
        "Eccentricity": 0.0,
        "Inclination(deg)": 53.0,
        "Latitude(deg)": 32.016989545115266,
        "Longitude(deg)": 31.2823312318869,
        "Mean Anomaly(deg)": 41.43684814226859,
        "RAAN(deg)": 104.97924919690111,
        "Satellite Name": "Starlink Shell 1 463",
        "Satellite Number": 463,
        "Semi-Major Axis(m)": 6931778.249405717,
        "Time(s)": 400
    },
    {
        "Altitude(m)": 555457.5564224565,
        "Argument of Periapsis(deg)": 0.014291717659960712,
        "Eccentricity": 0.0,
        "Inclination(deg)": 53.0,
        "Latitude(deg)": 32.45998385199893,
        "Longitude(deg)": 31.766613047344027,
        "Mean Anomaly(deg)": 42.0636793458253,
        "RAAN(deg)": 104.97873042682363,
        "Satellite Name": "Starlink Shell 1 463",
        "Satellite Number": 463,
        "Semi-Major Axis(m)": 6931778.249405717,
        "Time(s)": 410
    },
    {
        "Altitude(m)": 555536.1912504494,
        "Argument of Periapsis(deg)": 0.014640296139471948,
        "Eccentricity": 0.0,
        "Inclination(deg)": 53.0,
        "Latitude(deg)": 32.90073177018437,
        "Longitude(deg)": 32.256046739907475,
        "Mean Anomaly(deg)": 42.69051054938204,
        "RAAN(deg)": 104.97821165674615,
        "Satellite Name": "Starlink Shell 1 463",
        "Satellite Number": 463,
        "Semi-Major Axis(m)": 6931778.249405717,
        "Time(s)": 420
    },
    {
        "Altitude(m)": 555615.5340077991,
        "Argument of Periapsis(deg)": 0.014988874618983185,
        "Eccentricity": 0.0,
        "Inclination(deg)": 53.0,
        "Latitude(deg)": 33.33917357284794,
        "Longitude(deg)": 32.7507447052592,
        "Mean Anomaly(deg)": 43.31734175293875,
        "RAAN(deg)": 104.97769288666868,
        "Satellite Name": "Starlink Shell 1 463",
        "Satellite Number": 463,
        "Semi-Major Axis(m)": 6931778.249405717,
        "Time(s)": 430
    },
    {
        "Altitude(m)": 555695.5293047935,
        "Argument of Periapsis(deg)": 0.015337453098494424,
        "Eccentricity": 0.0,
        "Inclination(deg)": 53.0,
        "Latitude(deg)": 33.77524815360075,
        "Longitude(deg)": 33.25082093850871,
        "Mean Anomaly(deg)": 43.94417295649546,
        "RAAN(deg)": 104.9771741165912,
        "Satellite Name": "Starlink Shell 1 463",
        "Satellite Number": 463,
        "Semi-Major Axis(m)": 6931778.249405717,
        "Time(s)": 440
    },
    {
        "Altitude(m)": 555776.1216258893,
        "Argument of Periapsis(deg)": 0.01568603157800566,
        "Eccentricity": 0.0,
        "Inclination(deg)": 53.0,
        "Latitude(deg)": 34.20889299354142,
        "Longitude(deg)": 33.75638997318557,
        "Mean Anomaly(deg)": 44.57100416005218,
        "RAAN(deg)": 104.97665534651375,
        "Satellite Name": "Starlink Shell 1 463",
        "Satellite Number": 463,
        "Semi-Major Axis(m)": 6931778.249405717,
        "Time(s)": 450
    },
    {
        "Altitude(m)": 555857.2553585764,
        "Argument of Periapsis(deg)": 0.0160346100575169,
        "Eccentricity": 0.0,
        "Inclination(deg)": 53.0,
        "Latitude(deg)": 34.64004412841352,
        "Longitude(deg)": 34.26756732606428,
        "Mean Anomaly(deg)": 45.19783536360889,
        "RAAN(deg)": 104.97613657643628,
        "Satellite Name": "Starlink Shell 1 463",
        "Satellite Number": 463,
        "Semi-Major Axis(m)": 6931778.249405717,
        "Time(s)": 460
    },
    {
        "Altitude(m)": 555938.874822223,
        "Argument of Periapsis(deg)": 0.016383188537028134,
        "Eccentricity": 0.0,
        "Inclination(deg)": 53.0,
        "Latitude(deg)": 35.06863611595693,
        "Longitude(deg)": 34.78446993447114,
        "Mean Anomaly(deg)": 45.82466656716563,
        "RAAN(deg)": 104.97561780635877,
        "Satellite Name": "Starlink Shell 1 463",
        "Satellite Number": 463,
        "Semi-Major Axis(m)": 6931778.249405717,
        "Time(s)": 470
    },
    {
        "Altitude(m)": 556020.924296903,
        "Argument of Periapsis(deg)": 0.01673176701653937,
        "Eccentricity": 0.0,
        "Inclination(deg)": 53.0,
        "Latitude(deg)": 35.49460200355118,
        "Longitude(deg)": 35.307215072701986,
        "Mean Anomaly(deg)": 46.45149777072234,
        "RAAN(deg)": 104.97509903628132,
        "Satellite Name": "Starlink Shell 1 463",
        "Satellite Number": 463,
        "Semi-Major Axis(m)": 6931778.249405717,
        "Time(s)": 480
    },
    {
        "Altitude(m)": 556103.3480522167,
        "Argument of Periapsis(deg)": 0.017080345496050607,
        "Eccentricity": 0.0,
        "Inclination(deg)": 53.0,
        "Latitude(deg)": 35.917873296266826,
        "Longitude(deg)": 35.835920772784114,
        "Mean Anomaly(deg)": 47.078328974279025,
        "RAAN(deg)": 104.97458026620384,
        "Satellite Name": "Starlink Shell 1 463",
        "Satellite Number": 463,
        "Semi-Major Axis(m)": 6931778.249405717,
        "Time(s)": 490
    },
    {
        "Altitude(m)": 556186.0903760428,
        "Argument of Periapsis(deg)": 0.017428923975561842,
        "Eccentricity": 0.0,
        "Inclination(deg)": 53.0,
        "Latitude(deg)": 36.33837992544288,
        "Longitude(deg)": 36.370706236172445,
        "Mean Anomaly(deg)": 47.70516017783576,
        "RAAN(deg)": 104.97406149612637,
        "Satellite Name": "Starlink Shell 1 463",
        "Satellite Number": 463,
        "Semi-Major Axis(m)": 6931778.249405717,
        "Time(s)": 500
    },
    {
        "Altitude(m)": 556269.0956032597,
        "Argument of Periapsis(deg)": 0.01777750245507308,
        "Eccentricity": 0.0,
        "Inclination(deg)": 53.0,
        "Latitude(deg)": 36.75605021791979,
        "Longitude(deg)": 36.91169072295436,
        "Mean Anomaly(deg)": 48.331991381392456,
        "RAAN(deg)": 104.97354272604889,
        "Satellite Name": "Starlink Shell 1 463",
        "Satellite Number": 463,
        "Semi-Major Axis(m)": 6931778.249405717,
        "Time(s)": 510
    },
    {
        "Altitude(m)": 556352.308144385,
        "Argument of Periapsis(deg)": 0.018126080934584315,
        "Eccentricity": 0.0,
        "Inclination(deg)": 53.0,
        "Latitude(deg)": 37.170810866076465,
        "Longitude(deg)": 37.458993943743046,
        "Mean Anomaly(deg)": 48.95882258494919,
        "RAAN(deg)": 104.97302395597141,
        "Satellite Name": "Starlink Shell 1 463",
        "Satellite Number": 463,
        "Semi-Major Axis(m)": 6931778.249405717,
        "Time(s)": 520
    },
    {
        "Altitude(m)": 556435.6725141408,
        "Argument of Periapsis(deg)": 0.018474659414095554,
        "Eccentricity": 0.0,
        "Inclination(deg)": 53.0,
        "Latitude(deg)": 37.58258689882387,
        "Longitude(deg)": 38.012736440801596,
        "Mean Anomaly(deg)": 49.58565378850592,
        "RAAN(deg)": 104.97250518589394,
        "Satellite Name": "Starlink Shell 1 463",
        "Satellite Number": 463,
        "Semi-Major Axis(m)": 6931778.249405717,
        "Time(s)": 530
    },
    {
        "Altitude(m)": 556519.1333598923,
        "Argument of Periapsis(deg)": 0.018823237893606792,
        "Eccentricity": 0.0,
        "Inclination(deg)": 53.0,
        "Latitude(deg)": 37.99130165372137,
        "Longitude(deg)": 38.57303844492911,
        "Mean Anomaly(deg)": 50.21248499206262,
        "RAAN(deg)": 104.97198641581649,
        "Satellite Name": "Starlink Shell 1 463",
        "Satellite Number": 463,
        "Semi-Major Axis(m)": 6931778.249405717,
        "Time(s)": 540
    },
    {
        "Altitude(m)": 556602.6354900328,
        "Argument of Periapsis(deg)": 0.019171816373118027,
        "Eccentricity": 0.0,
        "Inclination(deg)": 53.0,
        "Latitude(deg)": 38.39687675040193,
        "Longitude(deg)": 39.14002023325107,
        "Mean Anomaly(deg)": 50.83931619561933,
        "RAAN(deg)": 104.97146764573901,
        "Satellite Name": "Starlink Shell 1 463",
        "Satellite Number": 463,
        "Semi-Major Axis(m)": 6931778.249405717,
        "Time(s)": 550
    },
    {
        "Altitude(m)": 556686.1239021927,
        "Argument of Periapsis(deg)": 0.019520394852629266,
        "Eccentricity": 0.0,
        "Inclination(deg)": 53.0,
        "Latitude(deg)": 38.79923206549891,
        "Longitude(deg)": 39.71380247442797,
        "Mean Anomaly(deg)": 51.46614739917604,
        "RAAN(deg)": 104.97094887566153,
        "Satellite Name": "Starlink Shell 1 463",
        "Satellite Number": 463,
        "Semi-Major Axis(m)": 6931778.249405717,
        "Time(s)": 560
    }
]